NORAD_CAT_ID,OBJECT_NAME,OBJECT_TYPE,EPOCH,MEAN_MOTION,ECCENTRICITY,INCLINATION,RA_OF_ASC_NODE,ARG_OF_PERICENTER,MEAN_ANOMALY,BSTAR,MEAN_MOTION_DOT,MEAN_MOTION_DDOT,TLE_LINE0,TLE_LINE1,TLE_LINE2,SEMIMAJOR_AXIS,PERIOD,APOGEE,PERIGEE,DECAYED
55406.0,STARLINK-5630,PAYLOAD,2023-10-27 19:50:39,14.98337901,0.0002912,70.0001,82.7063,269.6332,90.4494,9.1341e-05,9.97e-06,0.0,0 STARLINK-5630,1 55406U 23014R   23300.82684687  .00000997  00000-0  91341-4 0  9994,2 55406  70.0001  82.7063 0002912 269.6332  90.4494 14.98337901 41719,6950.168,96.106,574.057,570.01,0.0
55406.0,STARLINK-5630,PAYLOAD,2023-10-28 10:15:53,14.98325629,0.0002392,70.0006,81.1918,271.7431,88.3454,-2.4499e-05,-3.85e-06,0.0,0 STARLINK-5630,1 55406U 23014R   23301.42769933 -.00000385  00000-0 -24499-4 0  9992,2 55406  70.0006  81.1918 0002392 271.7431  88.3454 14.98325629 41808,6950.206,96.107,573.734,570.409,0.0
55406.0,STARLINK-5630,PAYLOAD,2023-10-28 13:28:09,14.98304874,0.0002333,70.0004,80.8551,268.7165,91.3727,0.00027293,3.163e-05,0.0,0 STARLINK-5630,1 55406U 23014R   23301.56122624  .00003163  00000-0  27293-3 0  9996,2 55406  70.0004  80.8551 0002333 268.7165  91.3727 14.98304874 42762,6950.271,96.109,573.757,570.514,0.0
55406.0,STARLINK-5630,PAYLOAD,2023-10-28 19:52:40,14.98364986,0.0002555,70.0006,80.1815,252.7487,107.3393,-0.00075134,-9.054e-05,0.0,0 STARLINK-5630,1 55406U 23014R   23301.82825035 -.00009054  00000-0 -75134-3 0  9995,2 55406  70.0006  80.1815 0002555 252.7487 107.3393 14.98364986 41863,6950.085,96.105,573.725,570.174,0.0
55406.0,STARLINK-5630,PAYLOAD,2023-10-29 02:17:13,14.98340628,0.0002968,70.0001,79.5071,273.2129,86.8691,-0.00016299,-2.038e-05,0.0,0 STARLINK-5630,1 55406U 23014R   23302.09529249 -.00002038  00000-0 -16299-3 0  9995,2 55406  70.0001  79.5071 0002968 273.2129  86.8691 14.98340628 41907,6950.16,96.106,574.088,569.962,0.0
55406.0,STARLINK-5630,PAYLOAD,2023-10-29 13:30:09,14.98340454,0.0002785,70.0005,78.33,266.3861,93.698,3.9669e-05,3.81e-06,0.0,0 STARLINK-5630,1 55406U 23014R   23302.56260633  .00000381  00000-0  39669-4 0  9990,2 55406  70.0005  78.3300 0002785 266.3861  93.6980 14.98340454 42912,6950.161,96.106,573.961,570.09,0.0
55406.0,STARLINK-5630,PAYLOAD,2023-10-29 18:18:33,14.98343564,0.0002931,70.0002,77.8252,267.3339,92.7485,4.3066e-05,4.21e-06,0.0,0 STARLINK-5630,1 55406U 23014R   23302.76288279  .00000421  00000-0  43066-4 0  9999,2 55406  70.0002  77.8252 0002931 267.3339  92.7485 14.98343564 42941,6950.151,96.106,574.053,569.979,0.0
55406.0,STARLINK-5630,PAYLOAD,2023-10-30 02:19:13,14.98334531,0.0002641,70.0003,76.984,266.0853,94.0004,8.7926e-05,9.56e-06,0.0,0 STARLINK-5630,1 55406U 23014R   23303.09668594  .00000956  00000-0  87926-4 0  9994,2 55406  70.0003  76.9840 0002641 266.0853  94.0004 14.98334531 42058,6950.179,96.107,573.879,570.208,0.0
55406.0,STARLINK-5630,PAYLOAD,2023-10-30 11:56:03,14.98315405,0.0003101,70.0001,75.9734,270.6964,89.3839,-2.2882e-05,-3.66e-06,0.0,0 STARLINK-5630,1 55406U 23014R   23303.49726176 -.00000366  00000-0 -22882-4 0  9996,2 55406  70.0001  75.9734 0003101 270.6964  89.3839 14.98315405 42112,6950.238,96.108,574.258,569.948,0.0
55406.0,STARLINK-5630,PAYLOAD,2023-10-30 19:56:43,14.9832269,0.0003185,69.9998,75.1314,271.3452,88.7342,-1.9436e-06,-1.16e-06,0.0,0 STARLINK-5630,1 55406U 23014R   23303.83105819 -.00000116  00000-0 -19436-5 0  9994,2 55406  69.9998  75.1314 0003185 271.3452  88.7342 14.98322690 42163,6950.215,96.107,574.294,569.867,0.0
55406.0,STARLINK-5630,PAYLOAD,2023-10-31 15:10:19,14.98332731,0.0003035,70.0001,73.1115,269.4236,90.6575,-6.1178e-05,-8.23e-06,0.0,0 STARLINK-5630,1 55406U 23014R   23304.63217527 -.00000823  00000-0 -61178-4 0  9997,2 55406  70.0001  73.1115 0003035 269.4236  90.6575 14.98332731 43225,6950.184,96.107,574.159,569.94,0.0
55406.0,STARLINK-5630,PAYLOAD,2023-10-31 18:22:36,14.98333331,0.0003033,70.0004,72.775,269.2311,90.8501,-5.6374e-05,-7.66e-06,0.0,0 STARLINK-5630,1 55406U 23014R   23304.76569461 -.00000766  00000-0 -56374-4 0  9996,2 55406  70.0004  72.7750 0003033 269.2311  90.8501 14.98333331 42304,6950.183,96.107,574.156,569.94,0.0
55406.0,STARLINK-5630,PAYLOAD,2023-11-01 13:36:13,14.98314367,0.0003074,70.0007,70.7551,271.36,88.7207,0.00032114,3.739e-05,0.0,0 STARLINK-5630,1 55406U 23014R   23305.56681799  .00003739  00000-0  32114-3 0  9990,2 55406  70.0007  70.7551 0003074 271.3600  88.7207 14.98314367 43368,6950.241,96.108,574.243,569.97,0.0
55406.0,STARLINK-5630,PAYLOAD,2023-11-01 18:24:36,14.98332126,0.0002959,70.001,70.2514,271.2281,88.8539,0.00014997,1.697e-05,0.0,0 STARLINK-5630,1 55406U 23014R   23305.76709034  .00001697  00000-0  14997-3 0  9995,2 55406  70.0010  70.2514 0002959 271.2281  88.8539 14.98332126 42452,6950.186,96.107,574.108,569.995,0.0
55406.0,STARLINK-5630,PAYLOAD,2023-11-02 12:02:05,14.98329485,0.000263,70.0021,68.4009,262.4383,97.6478,2.2437e-05,1.75e-06,0.0,0 STARLINK-5630,1 55406U 23014R   23306.50145572  .00000175  00000-0  22437-4 0  9998,2 55406  70.0021  68.4009 0002630 262.4383  97.6478 14.98329485 42569,6950.194,96.107,573.887,570.232,0.0
55406.0,STARLINK-5630,PAYLOAD,2023-11-02 15:14:21,14.98331547,0.0002772,70.0023,68.0646,264.9716,95.1127,2.1563e-05,1.64e-06,0.0,0 STARLINK-5630,1 55406U 23014R   23306.63497476  .00000164  00000-0  21563-4 0  9992,2 55406  70.0023  68.0646 0002772 264.9716  95.1127 14.98331547 43521,6950.188,96.107,573.98,570.127,0.0
55406.0,STARLINK-5630,PAYLOAD,2023-11-02 18:26:38,14.98329939,0.0002741,70.002,67.7281,264.6992,95.3854,2.6664e-06,-6.1e-07,0.0,0 STARLINK-5630,1 55406U 23014R   23306.76849570 -.00000061  00000-0  26664-5 0  9997,2 55406  70.0020  67.7281 0002741 264.6992  95.3854 14.98329939 43541,6950.193,96.107,573.963,570.153,0.0
55406.0,STARLINK-5630,PAYLOAD,2023-11-03 10:27:58,14.98400967,0.0002783,70.0022,66.0445,261.8581,98.2263,-0.0011807,-0.00014178,0.0,0 STARLINK-5630,1 55406U 23014R   23307.43608902 -.00014178  00000-0 -11807-2 0  9999,2 55406  70.0022  66.0445 0002783 261.8581  98.2263 14.98400967 42700,6949.973,96.102,573.773,569.904,0.0
55406.0,STARLINK-5630,PAYLOAD,2023-11-03 13:40:14,14.98330426,0.0002809,70.0017,65.7074,266.7016,93.3822,-3.8482e-05,-5.52e-06,0.0,0 STARLINK-5630,1 55406U 23014R   23307.56961623 -.00000552  00000-0 -38482-4 0  9996,2 55406  70.0017  65.7074 0002809 266.7016  93.3822 14.98330426 43669,6950.192,96.107,574.009,570.104,0.0
55406.0,STARLINK-5630,PAYLOAD,2023-11-03 16:52:29,14.98381637,0.0002614,70.0019,65.371,259.351,100.7355,-0.00086962,-0.00010467,0.0,0 STARLINK-5630,1 55406U 23014R   23307.70312373 -.00010467  00000-0 -86962-3 0  9995,2 55406  70.0019  65.3710 0002614 259.3510 100.7355 14.98381637 42747,6950.033,96.104,573.715,570.081,0.0
55406.0,STARLINK-5630,PAYLOAD,2023-11-04 00:53:11,14.98334343,0.0003098,70.0012,64.5281,278.5369,81.5439,-3.6997e-05,-5.34e-06,0.0,0 STARLINK-5630,1 55406U 23014R   23308.03693325 -.00000534  00000-0 -36997-4 0  9999,2 55406  70.0012  64.5281 0003098 278.5369  81.5439 14.98334343 42792,6950.179,96.107,574.198,569.891,0.0
55406.0,STARLINK-5630,PAYLOAD,2023-11-04 10:29:59,14.98326399,0.0002761,70.0019,63.5192,264.997,95.0874,-9.1423e-06,-2.02e-06,0.0,0 STARLINK-5630,1 55406U 23014R   23308.43749749 -.00000202  00000-0 -91423-5 0  9993,2 55406  70.0019  63.5192 0002761 264.9970  95.0874 14.98326399 42854,6950.204,96.107,573.988,570.15,0.0
55406.0,STARLINK-5630,PAYLOAD,2023-11-04 13:42:15,14.98329726,0.0002626,70.0019,63.1826,264.1134,95.9726,-3.5298e-05,-5.14e-06,0.0,0 STARLINK-5630,1 55406U 23014R   23308.57101652 -.00000514  00000-0 -35298-4 0  9996,2 55406  70.0019  63.1826 0002626 264.1134  95.9726 14.98329726 43817,6950.194,96.107,573.884,570.234,0.0
55406.0,STARLINK-5630,PAYLOAD,2023-11-04 16:54:31,14.98329564,0.0002778,70.002,62.846,267.2592,92.8249,1.3547e-05,6.9e-07,0.0,0 STARLINK-5630,1 55406U 23014R   23308.70453534  .00000069  00000-0  13547-4 0  9996,2 55406  70.0020  62.8460 0002778 267.2592  92.8249 14.98329564 43837,6950.194,96.107,573.99,570.128,0.0
55406.0,STARLINK-5630,PAYLOAD,2023-11-05 00:55:11,14.98346912,0.0003237,70.0011,62.002,272.6941,87.3847,-0.0001544,-1.936e-05,0.0,0 STARLINK-5630,1 55406U 23014R   23309.03832612 -.00001936  00000-0 -15440-3 0  9990,2 55406  70.0011  62.0020 0003237 272.6941  87.3847 14.98346912 42940,6950.141,96.106,574.255,569.756,0.0
55406.0,STARLINK-5630,PAYLOAD,2023-11-05 13:44:15,14.98345999,0.0002906,70.0012,60.6559,263.2927,96.7901,0.00016714,1.903e-05,0.0,0 STARLINK-5630,1 55406U 23014R   23309.57239796  .00001903  00000-0  16714-3 0  9990,2 55406  70.0012  60.6559 0002906 263.2927  96.7901 14.98345999 43966,6950.143,96.106,574.028,569.989,0.0
55406.0,STARLINK-5630,PAYLOAD,2023-11-05 16:56:30,14.98349856,0.0003028,70.0012,60.3198,267.958,92.1233,0.00021271,2.447e-05,0.0,0 STARLINK-5630,1 55406U 23014R   23309.70591328  .00002447  00000-0  21271-3 0  9995,2 55406  70.0012  60.3198 0003028 267.9580  92.1233 14.98349856 43047,6950.131,96.106,574.101,569.892,0.0
55406.0,STARLINK-5630,PAYLOAD,2023-11-06 12:10:07,14.98337507,0.0003047,70.0012,58.2991,275.4796,84.6015,0.00013754,1.549e-05,0.0,0 STARLINK-5630,1 55406U 23014R   23310.50703639  .00001549  00000-0  13754-3 0  9994,2 55406  70.0012  58.2991 0003047 275.4796  84.6015 14.98337507 43165,6950.17,96.107,574.152,569.917,0.0
55406.0,STARLINK-5630,PAYLOAD,2023-11-06 13:46:18,14.98299955,0.0002798,70.0013,58.1317,265.2815,94.8024,-0.00032861,-4.009e-05,0.0,0 STARLINK-5630,1 55406U 23014R   23310.57383039 -.00004009  00000-0 -32861-3 0  9995,2 55406  70.0013  58.1317 0002798 265.2815  94.8024 14.98299955 44111,6950.286,96.109,574.095,570.206,0.0
55406.0,STARLINK-5630,PAYLOAD,2023-11-06 15:22:28,14.98287195,0.0002832,70.0011,57.963,266.0088,94.0747,-0.00047233,-5.718e-05,0.0,0 STARLINK-5630,1 55406U 23014R   23310.64060301 -.00005718  00000-0 -47233-3 0  9994,2 55406  70.0011  57.9630 0002832 266.0088  94.0747 14.98287195 43187,6950.325,96.11,574.159,570.222,0.0
